{
  "type": "FeatureCollection",
  "features": [
    {
      "type": "Feature",
      "properties": {
        "norad_id": 32447,
        "name": "FENGYUN 1C DEB",
        "group": "fengyun-1c-debris",
        "lat": 63.67211365339307,
        "lon": -22.971594510923442,
        "alt_km": 843.0672516340674,
        "timestamp": "2025-12-05T04:52:15.578402+00:00",
        "meta_object_name": "FENGYUN 1C DEB",
        "meta_object_id": "1999-025DBK",
        "meta_epoch": "2025-11-26T07:16:04.677024",
        "meta_mean_motion": 13.9600218,
        "meta_eccentricity": 0.00802127,
        "meta_inclination": 98.9321,
        "meta_ra_of_asc_node": 346.9282,
        "meta_arg_of_pericenter": 86.1501,
        "meta_mean_anomaly": 274.8828,
        "meta_ephemeris_type": 0,
        "meta_classification_type": "U",
        "meta_norad_cat_id": 32447,
        "meta_element_set_no": 999,
        "meta_rev_at_epoch": 67649,
        "meta_bstar": 5.5043618e-05,
        "meta_mean_motion_dot": 3.5e-07,
        "meta_mean_motion_ddot": 0,
        "tle_line1": "1 32447U 99025DBK 25330.30283191  .00000035  00000+0  55044-4 0  9994",
        "tle_line2": "2 32447  98.9321 346.9282 0080212  86.1501 274.8828 13.96002180676493"
      },
      "geometry": {
        "type": "Point",
        "coordinates": [
          -22.971594510923442,
          63.67211365339307
        ]
      }
    },
    {
      "type": "Feature",
      "properties": {
        "norad_id": 32451,
        "name": "FENGYUN 1C DEB",
        "group": "fengyun-1c-debris",
        "lat": -12.632872337622876,
        "lon": -39.25134637623122,
        "alt_km": 1035.5800366756675,
        "timestamp": "2025-12-05T04:52:15.578412+00:00",
        "meta_object_name": "FENGYUN 1C DEB",
        "meta_object_id": "1999-025DBP",
        "meta_epoch": "2025-12-04T04:41:16.250208",
        "meta_mean_motion": 13.86505433,
        "meta_eccentricity": 0.0185796,
        "meta_inclination": 99.9697,
        "meta_ra_of_asc_node": 317.4163,
        "meta_arg_of_pericenter": 217.4732,
        "meta_mean_anomaly": 141.3349,
        "meta_ephemeris_type": 0,
        "meta_classification_type": "U",
        "meta_norad_cat_id": 32451,
        "meta_element_set_no": 999,
        "meta_rev_at_epoch": 61646,
        "meta_bstar": 0.0038566,
        "meta_mean_motion_dot": 5.079e-05,
        "meta_mean_motion_ddot": 0,
        "tle_line1": "1 32451U 99025DBP 25338.19532697  .00005079  00000+0  38566-2 0  9993",
        "tle_line2": "2 32451  99.9697 317.4163 0185796 217.4732 141.3349 13.86505433616469"
      },
      "geometry": {
        "type": "Point",
        "coordinates": [
          -39.25134637623122,
          -12.632872337622876
        ]
      }
    },
    {
      "type": "Feature",
      "properties": {
        "norad_id": 32453,
        "name": "FENGYUN 1C DEB",
        "group": "fengyun-1c-debris",
        "lat": -16.32505017455544,
        "lon": 65.92088105888664,
        "alt_km": 830.1544923848332,
        "timestamp": "2025-12-05T04:52:15.578421+00:00",
        "meta_object_name": "FENGYUN 1C DEB",
        "meta_object_id": "1999-025DBR",
        "meta_epoch": "2025-11-28T10:57:12.038976",
        "meta_mean_motion": 14.02200263,
        "meta_eccentricity": 0.00971069,
        "meta_inclination": 99.3715,
        "meta_ra_of_asc_node": 241.7597,
        "meta_arg_of_pericenter": 245.8452,
        "meta_mean_anomaly": 113.2535,
        "meta_ephemeris_type": 0,
        "meta_classification_type": "U",
        "meta_norad_cat_id": 32453,
        "meta_element_set_no": 999,
        "meta_rev_at_epoch": 93228,
        "meta_bstar": 0.00096884375,
        "meta_mean_motion_dot": 1.498e-05,
        "meta_mean_motion_ddot": 0,
        "tle_line1": "1 32453U 99025DBR 25332.45638934  .00001498  00000+0  96884-3 0  9998",
        "tle_line2": "2 32453  99.3715 241.7597 0097106 245.8452 113.2535 14.02200263932285"
      },
      "geometry": {
        "type": "Point",
        "coordinates": [
          65.92088105888664,
          -16.32505017455544
        ]
      }
    },
    {
      "type": "Feature",
      "properties": {
        "norad_id": 32455,
        "name": "FENGYUN 1C DEB",
        "group": "fengyun-1c-debris",
        "lat": 12.334055544169663,
        "lon": -8.072579695275186,
        "alt_km": 748.2500598349543,
        "timestamp": "2025-12-05T04:52:15.578430+00:00",
        "meta_object_name": "FENGYUN 1C DEB",
        "meta_object_id": "1999-025DBT",
        "meta_epoch": "2025-11-30T08:31:26.630112",
        "meta_mean_motion": 13.92295541,
        "meta_eccentricity": 0.02377178,
        "meta_inclination": 101.7332,
        "meta_ra_of_asc_node": 163.1966,
        "meta_arg_of_pericenter": 176.0844,
        "meta_mean_anomaly": 184.2238,
        "meta_ephemeris_type": 0,
        "meta_classification_type": "U",
        "meta_norad_cat_id": 32455,
        "meta_element_set_no": 999,
        "meta_rev_at_epoch": 64243,
        "meta_bstar": 0.0029260204,
        "meta_mean_motion_dot": 4.672e-05,
        "meta_mean_motion_ddot": 0,
        "tle_line1": "1 32455U 99025DBT 25334.35516933  .00004672  00000+0  29260-2 0  9995",
        "tle_line2": "2 32455 101.7332 163.1966 0237717 176.0844 184.2238 13.92295541642435"
      },
      "geometry": {
        "type": "Point",
        "coordinates": [
          -8.072579695275186,
          12.334055544169663
        ]
      }
    },
    {
      "type": "Feature",
      "properties": {
        "norad_id": 32456,
        "name": "FENGYUN 1C DEB",
        "group": "fengyun-1c-debris",
        "lat": 45.05032030737918,
        "lon": -48.85376398753082,
        "alt_km": 1196.7742501771736,
        "timestamp": "2025-12-05T04:52:15.578439+00:00",
        "meta_object_name": "FENGYUN 1C DEB",
        "meta_object_id": "1999-025DBU",
        "meta_epoch": "2025-11-28T15:45:38.634624",
        "meta_mean_motion": 13.3556135,
        "meta_eccentricity": 0.03790377,
        "meta_inclination": 103.6671,
        "meta_ra_of_asc_node": 108.2999,
        "meta_arg_of_pericenter": 253.9297,
        "meta_mean_anomaly": 101.9772,
        "meta_ephemeris_type": 0,
        "meta_classification_type": "U",
        "meta_norad_cat_id": 32456,
        "meta_element_set_no": 999,
        "meta_rev_at_epoch": 60428,
        "meta_bstar": 0.0020707074,
        "meta_mean_motion_dot": 1.513e-05,
        "meta_mean_motion_ddot": 0,
        "tle_line1": "1 32456U 99025DBU 25332.65669716  .00001513  00000+0  20707-2 0  9993",
        "tle_line2": "2 32456 103.6671 108.2999 0379037 253.9297 101.9772 13.35561350604289"
      },
      "geometry": {
        "type": "Point",
        "coordinates": [
          -48.85376398753082,
          45.05032030737918
        ]
      }
    },
    {
      "type": "Feature",
      "properties": {
        "norad_id": 32458,
        "name": "FENGYUN 1C DEB",
        "group": "fengyun-1c-debris",
        "lat": -20.0518156843852,
        "lon": 1.7123364968660952,
        "alt_km": 675.8727719927083,
        "timestamp": "2025-12-05T04:52:15.578449+00:00",
        "meta_object_name": "FENGYUN 1C DEB",
        "meta_object_id": "1999-025DBW",
        "meta_epoch": "2025-12-04T07:36:40.919328",
        "meta_mean_motion": 14.62058524,
        "meta_eccentricity": 0.004081,
        "meta_inclination": 99.0463,
        "meta_ra_of_asc_node": 357.4098,
        "meta_arg_of_pericenter": 39.6877,
        "meta_mean_anomaly": 320.7295,
        "meta_ephemeris_type": 0,
        "meta_classification_type": "U",
        "meta_norad_cat_id": 32458,
        "meta_element_set_no": 999,
        "meta_rev_at_epoch": 67666,
        "meta_bstar": 0.0039607,
        "meta_mean_motion_dot": 0.00020121,
        "meta_mean_motion_ddot": 0,
        "tle_line1": "1 32458U 99025DBW 25338.31714027  .00020121  00000+0  39607-2 0  9995",
        "tle_line2": "2 32458  99.0463 357.4098 0040810  39.6877 320.7295 14.62058524676660"
      },
      "geometry": {
        "type": "Point",
        "coordinates": [
          1.7123364968660952,
          -20.0518156843852
        ]
      }
    },
    {
      "type": "Feature",
      "properties": {
        "norad_id": 32459,
        "name": "FENGYUN 1C DEB",
        "group": "fengyun-1c-debris",
        "lat": -34.66825110390287,
        "lon": 167.8269057920815,
        "alt_km": 604.713315571069,
        "timestamp": "2025-12-05T04:52:15.578458+00:00",
        "meta_object_name": "FENGYUN 1C DEB",
        "meta_object_id": "1999-025DBX",
        "meta_epoch": "2025-12-01T11:39:14.293440",
        "meta_mean_motion": 14.42724223,
        "meta_eccentricity": 0.02128066,
        "meta_inclination": 98.3034,
        "meta_ra_of_asc_node": 350.0004,
        "meta_arg_of_pericenter": 220.4744,
        "meta_mean_anomaly": 138.0452,
        "meta_ephemeris_type": 0,
        "meta_classification_type": "U",
        "meta_norad_cat_id": 32459,
        "meta_element_set_no": 999,
        "meta_rev_at_epoch": 94388,
        "meta_bstar": 0.00065445905,
        "meta_mean_motion_dot": 2.812e-05,
        "meta_mean_motion_ddot": 0,
        "tle_line1": "1 32459U 99025DBX 25335.48558210  .00002812  00000+0  65446-3 0  9999",
        "tle_line2": "2 32459  98.3034 350.0004 0212806 220.4744 138.0452 14.42724223943882"
      },
      "geometry": {
        "type": "Point",
        "coordinates": [
          167.8269057920815,
          -34.66825110390287
        ]
      }
    }
  ]
}